6192 1990 KB1,e,10.31714,122.429184,168.424083,2.29199417,0,0.26595875,208.528992,8/10/1999,2000.0,12.7,0.15
6239 Minos,e,3.938179,344.849655,239.485756,1.1514896,0,0.41285823,86.727483,8/10/1999,2000.0,17.9,0.15
6249 Jennifer,e,28.104161,221.793921,151.365079,1.9146402,0,0.14202238,236.923981,8/10/1999,2000.0,12.4,0.15
6386 1989 NK1,e,8.735146,120.106025,267.662468,2.27121082,0,0.30124446,278.569439,8/10/1999,2000.0,12.7,0.15
6411 Tamaga,e,28.571892,157.825144,271.712711,2.76488276,0,0.41697816,75.257735,8/10/1999,2000.0,13,0.15
6455 1992 HE,e,37.367009,27.268043,262.640368,2.24110648,0,0.57195896,45.71639,8/10/1999,2000.0,13.8,0.15
6489 Golevka,e,2.289403,212.301495,65.138677,2.51394407,0,0.59749751,11.898436,8/10/1999,2000.0,19.2,0.15
6491 1991 OA,e,5.521764,306.555211,317.3369,2.50708386,0,0.5865188,17.940165,8/10/1999,2000.0,18.5,0.15
6500 Kodaira,e,29.318663,186.464707,255.284624,2.75287205,0,0.41878892,198.848952,8/10/1999,2000.0,12.5,0.15
6611 1993 VW,e,8.686876,231.186735,281.070989,1.69471736,0,0.48482958,168.937193,8/10/1999,2000.0,16.5,0.15
7025 1993 QA,e,12.600572,146.733123,323.249787,1.47627802,0,0.31511664,357.978105,8/10/1999,2000.0,18.3,0.15
7092 Cadmus,e,17.819913,59.625386,91.915245,2.52610406,0,0.70195036,300.862589,8/10/1999,2000.0,15.4,0.15
7304 1994 AE2,e,9.587325,109.780117,114.46245,2.61061969,0,0.43019448,61.223032,8/10/1999,2000.0,13.3,0.15
7335 1989 JA,e,15.231272,61.575194,231.880975,1.77038732,0,0.48422809,101.361182,8/10/1999,2000.0,17,0.15
7341 1991 VK,e,5.4191,295.055291,173.210594,1.84298151,0,0.50605621,11.658619,8/10/1999,2000.0,16.7,0.15
7350 1993 VA,e,7.259524,133.239506,336.478363,1.35598066,0,0.39112903,200.641825,8/10/1999,2000.0,17.3,0.15
7358 1995 YA3,e,4.660914,266.452664,90.9926,2.19839069,0,0.50172804,90.537715,8/10/1999,2000.0,14.4,0.15
7369 1975 AN,e,21.793999,278.601773,112.768026,2.36998633,0,0.31872436,301.981886,8/10/1999,2000.0,12.9,0.15
7480 Norwan,e,9.453839,124.517233,256.629183,1.56794944,0,0.31705016,158.962641,8/10/1999,2000.0,17.2,0.15
7482 1994 PC1,e,33.490909,117.962554,47.549002,1.34618657,0,0.3280675,202.944692,8/10/1999,2000.0,16.8,0.15
7505 1997 AM2,e,6.379657,86.665124,288.245513,2.63772682,0,0.38064537,275.67142,8/10/1999,2000.0,11.9,0.15
7604 1995 QY2,e,20.437295,147.33759,266.291556,3.11657386,0,0.57365967,232.468105,8/10/1999,2000.0,13.7,0.15
7753 1988 XB,e,3.12302,73.575637,279.930219,1.46785347,0,0.48184931,35.637908,8/10/1999,2000.0,18.6,0.15
7778 Markrobinson,e,19.564578,224.950141,96.644373,2.38343366,0,0.32726424,186.222887,8/10/1999,2000.0,12.5,0.15
7822 1991 CS,e,37.121834,156.916064,249.406896,1.12275242,0,0.16460035,120.478084,8/10/1999,2000.0,17.4,0.15
7839 1994 ND,e,27.189047,102.818309,227.947187,2.16642214,0,0.51630149,202.824119,8/10/1999,2000.0,17.9,0.15
7888 1993 UC,e,26.043419,166.03963,322.997925,2.43508039,0,0.66369441,157.880927,8/10/1999,2000.0,15.3,0.15
7889 1994 LX,e,36.901481,111.331737,349.06542,1.2614039,0,0.34625421,57.351949,8/10/1999,2000.0,15.3,0.15
7965 Katsuhiko,e,25.022294,310.126627,280.83521,2.43627988,0,0.2901918,266.173302,8/10/1999,2000.0,12,0.15
7977 1977 QQ5,e,25.190018,134.496899,247.767551,2.22649008,0,0.46609359,203.494469,8/10/1999,2000.0,15.4,0.15
8014 1990 MF,e,1.860117,210.637751,113.872336,1.74667001,0,0.45560046,323.484647,8/10/1999,2000.0,18.7,0.15
8034 1992 LR,e,2.023317,233.179878,67.796297,1.83073757,0,0.40874847,303.060741,8/10/1999,2000.0,17.9,0.15
8035 1992 TB,e,28.312246,185.705264,5.967071,1.3417837,0,0.46242982,300.387316,8/10/1999,2000.0,17.3,0.15
8037 1993 HO1,e,5.910167,22.681044,105.460604,1.98657948,0,0.41703635,132.828413,8/10/1999,2000.0,16.6,0.15
8176 1991 WA,e,39.647438,66.729543,241.779716,1.57535728,0,0.64247843,352.935826,8/10/1999,2000.0,17.1,0.15
8201 1994 AH2,e,9.61294,164.347259,24.93607,2.5299277,0,0.71029123,113.362767,8/10/1999,2000.0,16.3,0.15
8373 1992 AB,e,40.764382,88.895957,55.573355,3.28617713,0,0.55260462,83.384257,8/10/1999,2000.0,13.8,0.15
8507 1991 CB1,e,14.573195,317.558354,345.557756,1.68702835,0,0.59462425,191.375466,8/10/1999,2000.0,17.8,0.15
8566 1996 EN,e,37.952738,164.24384,125.069761,1.50651448,0,0.43087269,226.029205,8/10/1999,2000.0,16.5,0.15
8567 1996 HW1,e,8.426645,177.275149,176.831089,2.04615529,0,0.44881424,321.472921,8/10/1999,2000.0,15.3,0.15
9058 1992 JB,e,16.0725,218.472399,306.84489,1.55650214,0,0.35963668,295.703631,8/10/1999,2000.0,17.8,0.15
9162 1987 OA,e,9.01929,180.314452,235.437589,1.49666411,0,0.59545408,163.86765,8/10/1999,2000.0,18.3,0.15
9202 1993 PB,e,40.847684,316.000615,212.262021,1.42380494,0,0.60693231,287.609242,8/10/1999,2000.0,16,0.15
9400 1994 TW1,e,36.037291,3.603413,62.123283,2.59216681,0,0.57658762,36.206094,8/10/1999,2000.0,14.8,0.15
9856 1991 EE,e,9.762494,169.108163,115.105162,2.2449014,0,0.62431137,139.215479,8/10/1999,2000.0,17.4,0.15
9950 1990 VB,e,14.565627,254.599393,102.27001,2.44277076,0,0.52830494,113.165994,8/10/1999,2000.0,16.2,0.15
10115 1992 SK,e,15.326223,9.032752,233.435813,1.2488627,0,0.32484886,65.350997,8/10/1999,2000.0,17,0.15
10145 1994 CK1,e,4.57603,328.810278,26.929372,1.90081993,0,0.6328259,129.128414,8/10/1999,2000.0,17.3,0.15
10150 1994 PN,e,46.053366,113.233164,233.916146,2.37509237,0,0.54064034,111.534176,8/10/1999,2000.0,15.8,0.15
10165 1995 BL2,e,23.888254,312.5195,348.336936,1.23471494,0,0.5037353,322.238584,8/10/1999,2000.0,17.1,0.15
10302 1989 ML,e,4.377615,104.434193,183.199105,1.27250423,0,0.13655362,9.462394,8/10/1999,2000.0,19.5,0.15
10416 1998 VA32,e,20.328532,257.863048,251.298594,2.24238698,0,0.39794313,31.710672,8/10/1999,2000.0,14.6,0.15
10563 1993 WD,e,63.463381,56.586262,132.257174,1.00672694,0,0.26660037,131.377805,8/10/1999,2000.0,16.9,0.15
10636 1998 QK56,e,13.547789,173.382393,285.748964,1.88405437,0,0.51263278,92.90726,8/10/1999,2000.0,17.5,0.15
10860 1995 LE,e,4.148332,257.589368,75.344997,2.58245748,0,0.57192504,347.88812,8/10/1999,2000.0,17.3,0.15
11054 1991 FA,e,3.080299,339.530183,91.759426,1.97842179,0,0.44684882,57.180399,8/10/1999,2000.0,17.2,0.15
11066 1992 CC1,e,36.894078,349.304796,21.915545,1.39148751,0,0.37512762,311.433135,8/10/1999,2000.0,15.2,0.15
11311 1993 XN2,e,25.3915,59.716309,312.928334,2.11784019,0,0.53553705,323.869786,8/10/1999,2000.0,16.5,0.15
11398 1998 YP11,e,15.035358,145.05814,74.245136,1.72039514,0,0.38901644,49.886245,8/10/1999,2000.0,16.3,0.15
11405 1999 CV3,e,22.855695,141.44758,96.166024,1.45952074,0,0.39388292,51.443909,8/10/1999,2000.0,15,0.15
A908 SA,e,6.387135,176.210345,134.464296,2.59819137,0,0.45173698,248.322476,8/10/1999,2000.0,13.42,0.15
1927 LA,e,17.684596,191.410276,338.785089,3.33153492,0,0.33900003,341.776642,8/10/1999,2000.0,8.81,0.15
1930 KP,e,3.833525,261.14802,10.612192,2.54191796,0,0.2912761,349.483282,8/10/1999,2000.0,11.9,0.15
1931 TZ2,e,8.15435,199.218756,163.027239,1.91046121,0,0.14533961,253.805826,8/10/1999,2000.0,11.95,0.15
1936 UG,e,6.150086,104.342647,326.378055,2.61151625,0,0.31706766,299.625517,8/10/1999,2000.0,11.79,0.15
1937 UB,e,6.526846,34.525881,91.988451,1.78741341,0,0.66318724,273.029103,8/10/1999,2000.0,16.95,0.15
1937 UD,e,9.360681,33.122811,310.410194,2.24524454,0,0.36192232,153.816657,8/10/1999,2000.0,13.31,0.15
1950 DA,e,12.100489,356.932545,224.332328,1.68608992,0,0.50333939,189.952306,8/10/1999,2000.0,14,0.15
1954 XA,e,11.331326,221.003984,32.310767,0.68656973,0,0.62003907,36.67036,8/10/1999,2000.0,18.86,0.15
1970 NA,e,4.703078,128.912321,110.339548,2.38926569,0,0.4022312,337.820573,8/10/1999,2000.0,14.02,0.15
1977 VA,e,2.977729,224.680696,172.300639,1.8650507,0,0.39424989,197.674977,8/10/1999,2000.0,16.38,0.15
1978 CA,e,26.072365,161.315023,102.439272,1.12517506,0,0.2145143,276.033396,8/10/1999,2000.0,15.86,0.15
1979 XB,e,25.529882,83.38315,77.320938,2.52542448,0,0.74944093,309.009215,8/10/1999,2000.0,18.46,0.15
1980 DC1,e,9.975172,156.122404,214.961052,3.00494095,0,0.33784422,14.862437,8/10/1999,2000.0,11.36,0.15
1980 PV2,e,30.206862,110.123921,137.065184,1.9506695,0,0.26971169,32.985851,8/10/1999,2000.0,14,0.15
1980 TE5,e,8.394108,344.123771,225.868362,2.1716264,0,0.2353338,112.772658,8/10/1999,2000.0,12.67,0.15
1981 UO29,e,41.632272,26.129802,197.416204,2.88375227,0,0.29847408,26.903357,8/10/1999,2000.0,10.8,0.15
1982 UB3,e,11.884954,101.778443,67.14722,2.02968213,0,0.37297512,203.445761,8/10/1999,2000.0,12.99,0.15
1982 YA,e,35.24407,269.491855,144.455249,3.65648714,0,0.7003902,130.340527,8/10/1999,2000.0,16.12,0.15
1983 LC,e,1.527651,159.8954,184.585339,2.68654775,0,0.71622318,228.079665,8/10/1999,2000.0,18.18,0.15
1983 VA,e,16.258722,77.4994,11.699173,2.60795582,0,0.69354718,255.188576,8/10/1999,2000.0,15.88,0.15
1984 QY1,e,17.724567,139.716044,339.246639,2.93859594,0,0.91340761,340.499214,8/10/1999,2000.0,14.17,0.15
1986 CB,e,22.475327,131.911514,289.766321,2.34495327,0,0.35243166,318.125111,8/10/1999,2000.0,13.27,0.15
1986 JK,e,2.139984,62.683933,232.626052,2.79921529,0,0.68003203,288.189067,8/10/1999,2000.0,18.81,0.15
1986 PY2,e,11.991441,334.463474,135.605435,2.71265517,0,0.30287766,201.234662,8/10/1999,2000.0,11.52,0.15
1986 WN2,e,12.607102,254.162046,330.977193,2.40938007,0,0.26889048,2.738005,8/10/1999,2000.0,12.04,0.15
1987 SF3,e,3.317738,187.704085,133.699036,2.25418163,0,0.53353864,194.715317,8/10/1999,2000.0,18.69,0.15
1987 WC,e,15.841663,51.936527,308.159698,1.36201515,0,0.23376467,173.05631,8/10/1999,2000.0,20.26,0.15
1988 RH9,e,19.205557,153.613312,39.557182,2.62932101,0,0.30597118,299.651508,8/10/1999,2000.0,11.06,0.15
1988 SM,e,10.948073,1.051606,313.012923,1.66490911,0,0.34409012,42.487334,8/10/1999,2000.0,17.86,0.15
1988 TA,e,2.539369,195.20545,104.580927,1.54115302,0,0.47856124,267.966426,8/10/1999,2000.0,20.81,0.15
1989 AZ,e,11.76231,295.765321,111.609367,1.64525171,0,0.46788495,28.995739,8/10/1999,2000.0,19.38,0.15
1989 DA,e,6.484832,349.393118,139.411261,2.15950616,0,0.54520821,109.626664,8/10/1999,2000.0,18.87,0.15
1989 GV,e,6.555826,214.528439,164.694005,2.53439228,0,0.33093096,17.141215,8/10/1999,2000.0,12.45,0.15
